GLOBALSTAR M057 [-]     
1 25943U 99058A   23287.29792116 -.00000038  00000+0  50124-3 0  9999
2 25943  51.9974 284.6561 0002459 189.0936 170.9869 12.24774813 91951
GLOBALSTAR M059 [-]     
1 25944U 99058B   23287.79327979 -.00000084  00000+0  26633-4 0  9996
2 25944  52.0027  61.1478 0000841 127.6393  40.0356 11.99954116 89396
GLOBALSTAR M056 [-]     
1 25945U 99058C   23287.37866875 -.00000062  00000+0  30090-3 0  9991
2 25945  51.9955  79.9489 0001607  76.1201 297.1979 12.04770106 88882
GLOBALSTAR M031 [-]     
1 25946U 99058D   23287.54104598  .00000017  00000+0  10910-2 0  9995
2 25946  51.9994   8.4212 0001629  36.3205  67.8657 12.15997590 90139
GLOBALSTAR M039 [-]     
1 25961U 99062A   23287.40562689 -.00000068  00000+0  19934-3 0  9994
2 25961  51.9861 331.9944 0003124  75.7439 284.3774 12.62271592102952
GLOBALSTAR M034 [-]     
1 25962U 99062B   23287.42711602 -.00000053  00000+0  44522-3 0  9993
2 25962  51.9848 161.5679 0013903 330.0846 201.6411 11.79415902 66204
GLOBALSTAR M029 [-]     
1 25963U 99062C   23287.39123784 -.00000050  00000+0  44375-3 0  9991
2 25963  51.9809 310.7995 0002644   1.6810  11.6231 11.99868802 95689
GLOBALSTAR M061 [-]     
1 25964U 99062D   23287.57225382 -.00000031  00000+0  80807-3 0  9998
2 25964  51.9815 337.1241 0005725 254.3872 274.1895 11.76751677 49173
